[
    {
        "OBJECT_NAME": "OBJECT CA",
        "OBJECT_ID": "2023-001CA",
        "EPOCH": "2025-12-06T21:46:53.188320",
        "MEAN_MOTION": 15.92105673,
        "ECCENTRICITY": 0.00012343,
        "INCLINATION": 97.3383,
        "RA_OF_ASC_NODE": 58.6569,
        "ARG_OF_PERICENTER": 358.1233,
        "MEAN_ANOMALY": 2.0036,
        "EPHEMERIS_TYPE": 0,
        "CLASSIFICATION_TYPE": "U",
        "NORAD_CAT_ID": 55081,
        "ELEMENT_SET_NO": 999,
        "REV_AT_EPOCH": 16383,
        "BSTAR": 0.0011728451,
        "MEAN_MOTION_DOT": 0.00387307,
        "MEAN_MOTION_DDOT": 5.9289283e-05
    },
    {
        "OBJECT_NAME": "KSF3-A",
        "OBJECT_ID": "2023-001CF",
        "EPOCH": "2025-12-06T22:09:04.690944",
        "MEAN_MOTION": 16.1166539,
        "ECCENTRICITY": 0.00075352,
        "INCLINATION": 97.3321,
        "RA_OF_ASC_NODE": 59.4171,
        "ARG_OF_PERICENTER": 313.4934,
        "MEAN_ANOMALY": 46.5723,
        "EPHEMERIS_TYPE": 0,
        "CLASSIFICATION_TYPE": "U",
        "NORAD_CAT_ID": 55086,
        "ELEMENT_SET_NO": 999,
        "REV_AT_EPOCH": 16387,
        "BSTAR": 0.0016735124,
        "MEAN_MOTION_DOT": 0.01673241,
        "MEAN_MOTION_DDOT": 0.0022259987
    },
    {
        "OBJECT_NAME": "OBJECT A",
        "OBJECT_ID": "2023-003A",
        "EPOCH": "2025-12-06T19:19:50.248416",
        "MEAN_MOTION": 16.11013846,
        "ECCENTRICITY": 0.0008678,
        "INCLINATION": 97.1466,
        "RA_OF_ASC_NODE": 56.3858,
        "ARG_OF_PERICENTER": 325.4929,
        "MEAN_ANOMALY": 34.5791,
        "EPHEMERIS_TYPE": 0,
        "CLASSIFICATION_TYPE": "U",
        "NORAD_CAT_ID": 55133,
        "ELEMENT_SET_NO": 999,
        "REV_AT_EPOCH": 16277,
        "BSTAR": 0.0025410913,
        "MEAN_MOTION_DOT": 0.02297073,
        "MEAN_MOTION_DDOT": 0.0057648384
    },
    {
        "OBJECT_NAME": "GHOST-2",
        "OBJECT_ID": "2023-054V",
        "EPOCH": "2025-12-06T18:02:52.925280",
        "MEAN_MOTION": 16.09036407,
        "ECCENTRICITY": 0.00040891,
        "INCLINATION": 97.3067,
        "RA_OF_ASC_NODE": 256.1517,
        "ARG_OF_PERICENTER": 106.8031,
        "MEAN_ANOMALY": 253.3702,
        "EPHEMERIS_TYPE": 0,
        "CLASSIFICATION_TYPE": "U",
        "NORAD_CAT_ID": 56197,
        "ELEMENT_SET_NO": 999,
        "REV_AT_EPOCH": 14956,
        "BSTAR": 0.0010139197,
        "MEAN_MOTION_DOT": 0.00878804,
        "MEAN_MOTION_DDOT": 0.00043376197
    },
    {
        "OBJECT_NAME": "SKYKRAFT-3",
        "OBJECT_ID": "2023-084BN",
        "EPOCH": "2025-12-06T22:32:43.544832",
        "MEAN_MOTION": 16.03606356,
        "ECCENTRICITY": 0.00066111,
        "INCLINATION": 97.5701,
        "RA_OF_ASC_NODE": 128.5343,
        "ARG_OF_PERICENTER": 284.8627,
        "MEAN_ANOMALY": 75.192,
        "EPHEMERIS_TYPE": 0,
        "CLASSIFICATION_TYPE": "U",
        "NORAD_CAT_ID": 56229,
        "ELEMENT_SET_NO": 999,
        "REV_AT_EPOCH": 13919,
        "BSTAR": 0.0015338192,
        "MEAN_MOTION_DOT": 0.00953081,
        "MEAN_MOTION_DDOT": 0.00047179881
    },
    {
        "OBJECT_NAME": "TROPICS-03",
        "OBJECT_ID": "2023-073B",
        "EPOCH": "2025-12-06T21:19:45.799392",
        "MEAN_MOTION": 16.0455686,
        "ECCENTRICITY": 0.00084488,
        "INCLINATION": 32.7211,
        "RA_OF_ASC_NODE": 282.3385,
        "ARG_OF_PERICENTER": 227.1184,
        "MEAN_ANOMALY": 132.8805,
        "EPHEMERIS_TYPE": 0,
        "CLASSIFICATION_TYPE": "U",
        "NORAD_CAT_ID": 56753,
        "ELEMENT_SET_NO": 999,
        "REV_AT_EPOCH": 14185,
        "BSTAR": 0.0023342488,
        "MEAN_MOTION_DOT": 0.01618852,
        "MEAN_MOTION_DDOT": 0.0016270081
    },
    {
        "OBJECT_NAME": "AFRL-XVI",
        "OBJECT_ID": "2023-084L",
        "EPOCH": "2025-12-06T22:00:35.322336",
        "MEAN_MOTION": 15.92897345,
        "ECCENTRICITY": 0.00030442,
        "INCLINATION": 97.5721,
        "RA_OF_ASC_NODE": 134.15,
        "ARG_OF_PERICENTER": 269.9702,
        "MEAN_ANOMALY": 90.1223,
        "EPHEMERIS_TYPE": 0,
        "CLASSIFICATION_TYPE": "U",
        "NORAD_CAT_ID": 56942,
        "ELEMENT_SET_NO": 999,
        "REV_AT_EPOCH": 13956,
        "BSTAR": 0.00077961869,
        "MEAN_MOTION_DOT": 0.00268208,
        "MEAN_MOTION_DDOT": 2.9398956e-05
    },
    {
        "OBJECT_NAME": "SHIYAN-25 (SY-25)",
        "OBJECT_ID": "2023-087A",
        "EPOCH": "2025-12-06T17:02:56.205600",
        "MEAN_MOTION": 16.00899753,
        "ECCENTRICITY": 0.00124958,
        "INCLINATION": 96.617,
        "RA_OF_ASC_NODE": 36.9727,
        "ARG_OF_PERICENTER": 246.6177,
        "MEAN_ANOMALY": 113.379,
        "EPHEMERIS_TYPE": 0,
        "CLASSIFICATION_TYPE": "U",
        "NORAD_CAT_ID": 57047,
        "ELEMENT_SET_NO": 999,
        "REV_AT_EPOCH": 14400,
        "BSTAR": -6.1075208e-05,
        "MEAN_MOTION_DOT": -0.00033478,
        "MEAN_MOTION_DDOT": 2.315738e-06
    },
    {
        "OBJECT_NAME": "QIANKUN-1",
        "OBJECT_ID": "2023-103B",
        "EPOCH": "2025-12-06T16:58:29.499168",
        "MEAN_MOTION": 16.01146618,
        "ECCENTRICITY": 0.00213925,
        "INCLINATION": 96.234,
        "RA_OF_ASC_NODE": 33.2718,
        "ARG_OF_PERICENTER": 166.1352,
        "MEAN_ANOMALY": 194.0522,
        "EPHEMERIS_TYPE": 0,
        "CLASSIFICATION_TYPE": "U",
        "NORAD_CAT_ID": 57422,
        "ELEMENT_SET_NO": 999,
        "REV_AT_EPOCH": 13640,
        "BSTAR": 4.3186137e-05,
        "MEAN_MOTION_DOT": 0.00023471,
        "MEAN_MOTION_DDOT": 1.90489e-06
    },
    {
        "OBJECT_NAME": "STARLINK-30190",
        "OBJECT_ID": "2023-107Q",
        "EPOCH": "2025-12-06T20:28:55.461216",
        "MEAN_MOTION": 16.04711571,
        "ECCENTRICITY": 0.0023194,
        "INCLINATION": 42.9679,
        "RA_OF_ASC_NODE": 41.8124,
        "ARG_OF_PERICENTER": 46.8566,
        "MEAN_ANOMALY": 313.4248,
        "EPHEMERIS_TYPE": 0,
        "CLASSIFICATION_TYPE": "U",
        "NORAD_CAT_ID": 57471,
        "ELEMENT_SET_NO": 999,
        "REV_AT_EPOCH": 13209,
        "BSTAR": 0.0014874,
        "MEAN_MOTION_DOT": 0.01075776,
        "MEAN_MOTION_DDOT": 0.00062662
    },
    {
        "OBJECT_NAME": "PEARL 1C",
        "OBJECT_ID": "2023-174CQ",
        "EPOCH": "2025-12-06T19:53:27.815424",
        "MEAN_MOTION": 16.14991733,
        "ECCENTRICITY": 0.00066744,
        "INCLINATION": 97.3836,
        "RA_OF_ASC_NODE": 74.379,
        "ARG_OF_PERICENTER": 316.0496,
        "MEAN_ANOMALY": 44.0259,
        "EPHEMERIS_TYPE": 0,
        "CLASSIFICATION_TYPE": "U",
        "NORAD_CAT_ID": 58342,
        "ELEMENT_SET_NO": 999,
        "REV_AT_EPOCH": 11675,
        "BSTAR": 0.0021354667,
        "MEAN_MOTION_DOT": 0.02398783,
        "MEAN_MOTION_DDOT": 0.0083337876
    },
    {
        "OBJECT_NAME": "OBJECT R",
        "OBJECT_ID": "2024-043R",
        "EPOCH": "2025-12-06T22:07:12.796896",
        "MEAN_MOTION": 15.92139519,
        "ECCENTRICITY": 0.00031628,
        "INCLINATION": 97.5065,
        "RA_OF_ASC_NODE": 126.0889,
        "ARG_OF_PERICENTER": 255.9616,
        "MEAN_ANOMALY": 104.1307,
        "EPHEMERIS_TYPE": 0,
        "CLASSIFICATION_TYPE": "U",
        "NORAD_CAT_ID": 59113,
        "ELEMENT_SET_NO": 999,
        "REV_AT_EPOCH": 9870,
        "BSTAR": 0.0014973419,
        "MEAN_MOTION_DOT": 0.0049547,
        "MEAN_MOTION_DDOT": 9.7814215e-05
    }
]