OBJECT CA               
1 55081U 23001CA  25340.90756005  .00387307  59289-4  11728-2 0  9997
2 55081  97.3383  58.6569 0001234 358.1233   2.0036 15.92105673163839
KSF3-A                  
1 55086U 23001CF  25340.92297096  .01673241  22260-2  16735-2 0  9990
2 55086  97.3321  59.4171 0007535 313.4934  46.5723 16.11665390163875
OBJECT A                
1 55133U 23003A   25340.80544269  .02297073  57648-2  25411-2 0  9994
2 55133  97.1466  56.3858 0008678 325.4929  34.5791 16.11013846162773
GHOST-2                 
1 56197U 23054V   25340.75200145  .00878804  43376-3  10139-2 0  9997
2 56197  97.3067 256.1517 0004089 106.8031 253.3702 16.09036407149562
SKYKRAFT-3              
1 56229U 23084BN  25340.93939288  .00953081  47180-3  15338-2 0  9997
2 56229  97.5701 128.5343 0006611 284.8627  75.1920 16.03606356139195
TROPICS-03              
1 56753U 23073B   25340.88872453  .01618852  16270-2  23342-2 0  9995
2 56753  32.7211 282.3385 0008448 227.1184 132.8805 16.04556860141851
AFRL-XVI                
1 56942U 23084L   25340.91707549  .00268208  29399-4  77962-3 0  9995
2 56942  97.5721 134.1500 0003044 269.9702  90.1223 15.92897345139563
SHIYAN-25 (SY-25)       
1 57047U 23087A   25340.71037275 -.00033478  23157-5 -61075-4 0  9992
2 57047  96.6170  36.9727 0012495 246.6177 113.3790 16.00899753144003
QIANKUN-1               
1 57422U 23103B   25340.70728587  .00023471  19049-5  43186-4 0  9998
2 57422  96.2340  33.2718 0021392 166.1352 194.0522 16.01146618136402
STARLINK-30190          
1 57471U 23107Q   25340.85341969  .01075776  62662-3  14874-2 0  9990
2 57471  42.9679  41.8124 0023194  46.8566 313.4248 16.04711571132090
PEARL 1C                
1 58342U 23174CQ  25340.82879416  .02398783  83338-2  21355-2 0  9993
2 58342  97.3836  74.3790 0006674 316.0496  44.0259 16.14991733116750
OBJECT R                
1 59113U 24043R   25340.92167589  .00495470  97814-4  14973-2 0  9991
2 59113  97.5065 126.0889 0003162 255.9616 104.1307 15.92139519 98708
